STARLINK-2537           
1 48301U 21036AB  26203.19205217  .00002527  00000+0  93151-4 0  9996
2 48301  53.1584 185.3354 0001350  94.9771 265.1385 15.31705367288780
STARLINK-2530           
1 48303U 21036AD  26203.10778442  .00002682  00000+0  98086-4 0  9998
2 48303  53.1587 183.0006 0000986  87.5169 272.5946 15.31721312288814
STARLINK-2524           
1 48304U 21036AE  26203.17078442  .00001997  00000+0  76068-4 0  9993
2 48304  53.1590 193.1642 0001050  77.3108 282.8011 15.31714016288663
STARLINK-2519           
1 48305U 21036AF  26203.15688341  .00000135  00000+0  16120-4 0  9993
2 48305  53.1583 193.8125 0001144  90.2539 269.8594 15.31710390288656
STARLINK-2523           
1 48306U 21036AG  26203.17546758 -.00000197  00000+0  54336-5 0  9992
2 48306  53.1591 193.2623 0001333  85.5334 274.5820 15.31704188288667
STARLINK-2517           
1 48309U 21036AK  26203.13114978  .00001850  00000+0  71328-4 0  9991
2 48309  53.1609 183.3362 0001309  91.5690 268.5462 15.31714077288815
STARLINK-2536           
1 48310U 21036AL  26203.18342729  .00002223  00000+0  83331-4 0  9997
2 48310  53.1592 185.6235 0001233  93.3290 266.7852 15.31715598288782
STARLINK-2534           
1 48311U 21036AM  26203.16840391  .00003822  00000+0  13479-3 0  9995
2 48311  53.1573 182.9331 0001278  88.7872 271.3276 15.31720020288825
STARLINK-2061           
1 48312U 21036AN  26203.14040395  .00001888  00000+0  72575-4 0  9993
2 48312  53.1618 182.8154 0001364  90.9137 269.2021 15.31714120288821
STARLINK-2549           
1 48314U 21036AQ  26203.18268449  .00001652  00000+0  64955-4 0  9993
2 48314  53.1592 185.0906 0001085  90.2296 269.8830 15.31714354288781
STARLINK-2506           
1 48315U 21036AR  26203.13348345  .00004811  00000+0  16647-3 0  9997
2 48315  53.1591 193.3645 0001303 108.9401 251.1742 15.31744321288650
STARLINK-2507           
1 48316U 21036AS  26203.19409895  .00000072  00000+0  14095-4 0  9993
2 48316  53.1595 193.0709 0001216  93.2377 266.8763 15.31706419288667
STARLINK-2513           
1 48317U 21036AT  26203.16369667 -.00000150  00000+0  69159-5 0  9993
2 48317  53.1589 182.4683 0001133  89.7533 270.3598 15.31700198288828
STARLINK-2509           
1 48318U 21036AU  26203.19482065  .00002774  00000+0  10107-3 0  9995
2 48318  53.1589 196.0122 0001170  85.4638 274.6498 15.31720112288631
STARLINK-2512           
1 48319U 21036AV  26203.18540084  .00001370  00000+0  55883-4 0  9993
2 48319  53.1586 195.3292 0001245  77.3357 282.7784 15.31714552288640
STARLINK-2029           
1 48320U 21036AW  26203.14849324  .00001612  00000+0  63660-4 0  9991
2 48320  53.1598 195.8072 0001276  75.1458 284.9685 15.31715774288638
STARLINK-2457           
1 48321U 21036AX  26203.17141654  .00001568  00000+0  62259-4 0  9999
2 48321  53.1575 195.3260 0001234  78.3978 281.7162 15.31711676288647
STARLINK-2515           
1 48323U 21036AZ  26203.16208739  .00001217  00000+0  50975-4 0  9991
2 48323  53.1581 195.3433 0001221  79.7880 280.3260 15.31710617288649
STARLINK-2495           
1 48325U 21036BB  26203.16676698  .00005336  00000+0  18350-3 0  9992
2 48325  53.1582 195.4505 0001442  90.7879 269.3287 15.31719931288643
STARLINK-2498           
1 48326U 21036BC  26203.15777497  .00019569  00000+0  64013-3 0  9991
2 48326  53.1587 195.4237 0001837  89.0811 271.0401 15.31729432288641
STARLINK-2502           
1 48327U 21036BD  26203.15311135  .00002292  00000+0  85557-4 0  9997
2 48327  53.1588 195.4473 0001124  89.3987 270.7143 15.31714026288643
STARLINK-2504           
1 48328U 21036BE  26203.13877511  .00003588  00000+0  12724-3 0  9995
2 48328  53.1580 195.3939 0001234  85.4150 274.6992 15.31719352288634
STARLINK-2510           
1 48329U 21036BF  26203.13439837  .00009889  00000+0  32930-3 0  9992
2 48329  53.1598 195.4092 0001488 140.4425 219.6685 15.31769653288641
STARLINK-2501           
1 48330U 21036BG  26203.17646024  .00001728  00000+0  67421-4 0  9994
2 48330  53.1600 195.7065 0001381 108.9900 251.1251 15.31713173288645
STARLINK-2514           
1 48331U 21036BH  26203.15527705  .00034223  00000+0  97071-3 0  9996
2 48331  53.1562 194.9052 0006072  35.2695 324.8709 15.35924728288656
STARLINK-2518           
1 48333U 21036BK  26203.19038086  .00003204  00000+0  11488-3 0  9994
2 48333  53.1602 195.2036 0001110  86.0146 274.0982 15.31723575288654
STARLINK-2470           
1 48334U 21036BL  26203.18571448  .00000184  00000+0  17699-4 0  9993
2 48334  53.1590 195.2137 0001266  49.4671 310.6441 15.31721934288655
YAOGAN-34 01            
1 48340U 21037A   26203.28076668 -.00000184  00000+0 -15734-3 0  9995
2 48340  63.4035  56.2436 0043604 352.4775   7.5592 13.45435788256726
STARLINK-2613           
1 48353U 21038A   26202.70343585  .00001078  00000+0  46497-4 0  9993
2 48353  53.1612  94.5697 0001366  88.9879 271.1279 15.31702833287614
STARLINK-2674           
1 48354U 21038B   26202.12084691  .00001817  00000+0  70260-4 0  9996
2 48354  53.1602  97.3636 0001219  90.2264 269.8878 15.31715095287522
