OBJECT_NAME,OBJECT_ID,EPOCH,MEAN_MOTION,ECCENTRICITY,INCLINATION,RA_OF_ASC_NODE,ARG_OF_PERICENTER,MEAN_ANOMALY,EPHEMERIS_TYPE,CLASSIFICATION_TYPE,NORAD_CAT_ID,ELEMENT_SET_NO,REV_AT_EPOCH,BSTAR,MEAN_MOTION_DOT,MEAN_MOTION_DDOT
STARLINK-2537,2021-036AB,2026-07-22T04:36:33.307488,15.31705367,.000135,53.1584,185.3354,94.9771,265.1385,0,U,48301,999,28878,.93151476E-4,.2527E-4,0
STARLINK-2530,2021-036AD,2026-07-22T02:35:12.573888,15.31721312,.00009867,53.1587,183.0006,87.5169,272.5946,0,U,48303,999,28881,.98085557E-4,.2682E-4,0
STARLINK-2524,2021-036AE,2026-07-22T04:05:55.773888,15.31714016,.00010501,53.1590,193.1642,77.3108,282.8011,0,U,48304,999,28866,.76067788E-4,.1997E-4,0
STARLINK-2519,2021-036AF,2026-07-22T03:45:54.726624,15.31710390,.00011449,53.1583,193.8125,90.2539,269.8594,0,U,48305,999,28865,.16119632E-4,.135E-5,0
STARLINK-2523,2021-036AG,2026-07-22T04:12:40.398912,15.31704188,.00013331,53.1591,193.2623,85.5334,274.5820,0,U,48306,999,28866,.5433622E-5,-.197E-5,0
STARLINK-2517,2021-036AK,2026-07-22T03:08:51.340992,15.31714077,.00013096,53.1609,183.3362,91.5690,268.5462,0,U,48309,999,28881,.71327671E-4,.185E-4,0
STARLINK-2536,2021-036AL,2026-07-22T04:24:08.117856,15.31715598,.00012331,53.1592,185.6235,93.3290,266.7852,0,U,48310,999,28878,.83331196E-4,.2223E-4,0
STARLINK-2534,2021-036AM,2026-07-22T04:02:30.097824,15.31720020,.00012781,53.1573,182.9331,88.7872,271.3276,0,U,48311,999,28882,.13478693E-3,.3822E-4,0
STARLINK-2061,2021-036AN,2026-07-22T03:22:10.901280,15.31714120,.00013642,53.1618,182.8154,90.9137,269.2021,0,U,48312,999,28882,.72575349E-4,.1888E-4,0
STARLINK-2549,2021-036AQ,2026-07-22T04:23:03.939936,15.31714354,.00010858,53.1592,185.0906,90.2296,269.8830,0,U,48314,999,28878,.64954833E-4,.1652E-4,0
STARLINK-2506,2021-036AR,2026-07-22T03:12:12.970080,15.31744321,.00013033,53.1591,193.3645,108.9401,251.1742,0,U,48315,999,28865,.16647412E-3,.4811E-4,0
STARLINK-2507,2021-036AS,2026-07-22T04:39:30.149280,15.31706419,.00012166,53.1595,193.0709,93.2377,266.8763,0,U,48316,999,28866,.14094589E-4,.72E-6,0
STARLINK-2513,2021-036AT,2026-07-22T03:55:43.392288,15.31700198,.00011334,53.1589,182.4683,89.7533,270.3598,0,U,48317,999,28882,.6915911E-5,-.15E-5,0
STARLINK-2509,2021-036AU,2026-07-22T04:40:32.504160,15.31720112,.00011707,53.1589,196.0122,85.4638,274.6498,0,U,48318,999,28863,.10107389E-3,.2774E-4,0
STARLINK-2512,2021-036AV,2026-07-22T04:26:58.632576,15.31714552,.00012456,53.1586,195.3292,77.3357,282.7784,0,U,48319,999,28864,.55882912E-4,.137E-4,0
STARLINK-2029,2021-036AW,2026-07-22T03:33:49.815936,15.31715774,.00012761,53.1598,195.8072,75.1458,284.9685,0,U,48320,999,28863,.63659573E-4,.1612E-4,0
STARLINK-2457,2021-036AX,2026-07-22T04:06:50.389056,15.31711676,.00012348,53.1575,195.3260,78.3978,281.7162,0,U,48321,999,28864,.6225882E-4,.1568E-4,0
STARLINK-2515,2021-036AZ,2026-07-22T03:53:24.350496,15.31710617,.00012218,53.1581,195.3433,79.7880,280.3260,0,U,48323,999,28864,.50974685E-4,.1217E-4,0
STARLINK-2495,2021-036BB,2026-07-22T04:00:08.667072,15.31719931,.00014429,53.1582,195.4505,90.7879,269.3287,0,U,48325,999,28864,.18349674E-3,.5336E-4,0
STARLINK-2498,2021-036BC,2026-07-22T03:47:11.757408,15.31729432,.0001837,53.1587,195.4237,89.0811,271.0401,0,U,48326,999,28864,.64012856E-3,.19569E-3,0
STARLINK-2502,2021-036BD,2026-07-22T03:40:28.820640,15.31714026,.0001124,53.1588,195.4473,89.3987,270.7143,0,U,48327,999,28864,.85556566E-4,.2292E-4,0
STARLINK-2504,2021-036BE,2026-07-22T03:19:50.169504,15.31719352,.00012349,53.1580,195.3939,85.4150,274.6992,0,U,48328,999,28863,.12724498E-3,.3588E-4,0
STARLINK-2510,2021-036BF,2026-07-22T03:13:32.019168,15.31769653,.0001488,53.1598,195.4092,140.4425,219.6685,0,U,48329,999,28864,.32929942E-3,.9889E-4,0
STARLINK-2501,2021-036BG,2026-07-22T04:14:06.164736,15.31713173,.00013817,53.1600,195.7065,108.9900,251.1251,0,U,48330,999,28864,.67421288E-4,.1728E-4,0
STARLINK-2514,2021-036BH,2026-07-22T03:43:35.937120,15.35924728,.00060729,53.1562,194.9052,35.2695,324.8709,0,U,48331,999,28865,.9707145E-3,.34223E-3,0
STARLINK-2518,2021-036BK,2026-07-22T04:34:08.906304,15.31723575,.00011106,53.1602,195.2036,86.0146,274.0982,0,U,48333,999,28865,.11488451E-3,.3204E-4,0
STARLINK-2470,2021-036BL,2026-07-22T04:27:25.731072,15.31721934,.00012663,53.1590,195.2137,49.4671,310.6441,0,U,48334,999,28865,.17699045E-4,.184E-5,0
YAOGAN-34 01,2021-037A,2026-07-22T06:44:18.241152,13.45435788,.00436043,63.4035,56.2436,352.4775,7.5592,0,U,48340,999,25672,-.15733991E-3,-.184E-5,0
STARLINK-2613,2021-038A,2026-07-21T16:52:56.857440,15.31702833,.00013669,53.1612,94.5697,88.9879,271.1279,0,U,48353,999,28761,.46497425E-4,.1078E-4,0
STARLINK-2674,2021-038B,2026-07-21T02:54:01.173024,15.31715095,.00012194,53.1602,97.3636,90.2264,269.8878,0,U,48354,999,28752,.70260398E-4,.1817E-4,0
